LEMUR-2-FINNIAN         
1 66782U 25276DX  26167.48005642  .00005822  00000+0  46772-3 0  9997
2 66782  97.5288 238.4938 0008852  91.4223 268.8015 15.00370891 19892
LEMUR-2-STARLIGHT       
1 66783U 25276DY  26167.43575847  .00004249  00000+0  35425-3 0  9997
2 66783  97.5266 238.1002 0015176 130.0565 230.1993 14.99035432 30081
LEMUR-2-TARTIFLETTE     
1 66784U 25276DZ  26167.43424981  .00004140  00000+0  34509-3 0  9992
2 66784  97.5270 238.1050 0014127 136.5463 223.6876 14.99065125 30082
LEMUR-2-VUKASIN         
1 66785U 25276EA  26167.42855991  .00004834  00000+0  38947-3 0  9991
2 66785  97.5310 238.3939 0006177 125.5082 234.6719 15.00361961 30030
LEMUR-2-HOTSPUR-TOM     
1 66786U 25276EB  26167.15974495  .00005361  00000+0  44653-3 0  9990
2 66786  97.5266 237.8216 0015535 130.7335 229.5240 14.98952968 29972
LEMUR-2-MYRA            
1 66787U 25276EC  26167.59337147  .00006505  00000+0  52278-3 0  9999
2 66787  97.5219 238.4938 0016528 143.3309 216.9050 15.00238779 30122
LEMUR-2 FIKRETDENGIZ    
1 67363U 26004A   26167.52923846  .00003227  00000+0  35444-3 0  9994
2 67363  97.8010 166.0973 0010035 134.9923 225.2109 14.88320120 23188
TWILIGHT-1 OBJECT B     
1 67364U 26004B   26167.48616127  .00001548  00000+0  17582-3 0  9998
2 67364  97.8061 166.0704 0009885 126.2948 233.9183 14.87700065 23186
LEMUR-2-MARIO-SOUSA     
1 67365U 26004C   26167.58016138  .00003092  00000+0  33829-3 0  9994
2 67365  97.7985 166.1438 0009632 135.4367 224.7626 14.88509480 23205
LEMUR-2-SONNENBLUME     
1 67367U 26004E   26167.57847316  .00001967  00000+0  21844-3 0  9998
2 67367  97.7981 166.1270 0009107 136.8564 223.3368 14.88313380 23208
LEMUR-2-WOBLER          
1 67368U 26004F   26167.57204314  .00002714  00000+0  29761-3 0  9991
2 67368  97.8036 166.2423 0009528 127.1917 233.0171 14.88513398 23205
LEMUR-2-GRAM-E-SUE      
1 67370U 26004H   26167.56267235  .00001795  00000+0  19912-3 0  9999
2 67370  97.7968 166.1265 0008147 137.4251 222.7599 14.88468982 23202
LEMUR-2-KATIE           
1 67387U 26004AA  26167.55060869  .00003130  00000+0  32984-3 0  9999
2 67387  97.8033 166.5718 0004864  94.5349 265.6425 14.90045308 23215
LEMUR-2-HCS-BAZUS       
1 67388U 26004AB  26167.54967849  .00004679  00000+0  49000-3 0  9999
2 67388  97.8018 166.5517 0004445  91.3189 268.8538 14.90065581 23213
