OBJECT_NAME,OBJECT_ID,EPOCH,MEAN_MOTION,ECCENTRICITY,INCLINATION,RA_OF_ASC_NODE,ARG_OF_PERICENTER,MEAN_ANOMALY,EPHEMERIS_TYPE,CLASSIFICATION_TYPE,NORAD_CAT_ID,ELEMENT_SET_NO,REV_AT_EPOCH,BSTAR,MEAN_MOTION_DOT,MEAN_MOTION_DDOT
LEMUR-2-FINNIAN,2025-276DX,2026-06-16T11:31:16.874688,15.00370891,.00088529,97.5288,238.4938,91.4223,268.8015,0,U,66782,999,1989,.46772274E-3,.5822E-4,0
LEMUR-2-STARLIGHT,2025-276DY,2026-06-16T10:27:29.531808,14.99035432,.00151766,97.5266,238.1002,130.0565,230.1993,0,U,66783,999,3008,.3542484E-3,.4249E-4,0
LEMUR-2-TARTIFLETTE,2025-276DZ,2026-06-16T10:25:19.183584,14.99065125,.0014127,97.5270,238.1050,136.5463,223.6876,0,U,66784,999,3008,.34508693E-3,.414E-4,0
LEMUR-2-VUKASIN,2025-276EA,2026-06-16T10:17:07.576224,15.00361961,.00061779,97.5310,238.3939,125.5082,234.6719,0,U,66785,999,3003,.38946927E-3,.4834E-4,0
LEMUR-2-HOTSPUR-TOM,2025-276EB,2026-06-16T03:50:01.963680,14.98952968,.00155352,97.5266,237.8216,130.7335,229.5240,0,U,66786,999,2997,.44652533E-3,.5361E-4,0
LEMUR-2-MYRA,2025-276EC,2026-06-16T14:14:27.295008,15.00238779,.00165289,97.5219,238.4938,143.3309,216.9050,0,U,66787,999,3012,.52278064E-3,.6505E-4,0
LEMUR-2 FIKRETDENGIZ,2026-004A,2026-06-16T12:42:06.202944,14.88320120,.00100357,97.8010,166.0973,134.9923,225.2109,0,U,67363,999,2318,.3544402E-3,.3227E-4,0
TWILIGHT-1 OBJECT B,2026-004B,2026-06-16T11:40:04.333728,14.87700065,.00098855,97.8061,166.0704,126.2948,233.9183,0,U,67364,999,2318,.17581793E-3,.1548E-4,0
LEMUR-2-MARIO-SOUSA,2026-004C,2026-06-16T13:55:25.943232,14.88509480,.00096327,97.7985,166.1438,135.4367,224.7626,0,U,67365,999,2320,.33829353E-3,.3092E-4,0
LEMUR-2-SONNENBLUME,2026-004E,2026-06-16T13:53:00.081024,14.88313380,.0009107,97.7981,166.1270,136.8564,223.3368,0,U,67367,999,2320,.2184449E-3,.1967E-4,0
LEMUR-2-WOBLER,2026-004F,2026-06-16T13:43:44.527296,14.88513398,.00095281,97.8036,166.2423,127.1917,233.0171,0,U,67368,999,2320,.29761212E-3,.2714E-4,0
LEMUR-2-GRAM-E-SUE,2026-004H,2026-06-16T13:30:14.891040,14.88468982,.00081477,97.7968,166.1265,137.4251,222.7599,0,U,67370,999,2320,.1991233E-3,.1795E-4,0
LEMUR-2-KATIE,2026-004AA,2026-06-16T13:12:52.590816,14.90045308,.00048641,97.8033,166.5718,94.5349,265.6425,0,U,67387,999,2321,.32984135E-3,.313E-4,0
LEMUR-2-HCS-BAZUS,2026-004AB,2026-06-16T13:11:32.221536,14.90065581,.00044458,97.8018,166.5517,91.3189,268.8538,0,U,67388,999,2321,.49000212E-3,.4679E-4,0
